[{"OBJECT_NAME":"SAUDISAT 5A","OBJECT_ID":"2018-102A","EPOCH":"2026-03-09T23:40:00.596928","MEAN_MOTION":15.26941021,"ECCENTRICITY":0.00113651,"INCLINATION":97.3185,"RA_OF_ASC_NODE":132.4981,"ARG_OF_PERICENTER":121.7113,"MEAN_ANOMALY":238.5235,"EPHEMERIS_TYPE":0,"CLASSIFICATION_TYPE":"U","NORAD_CAT_ID":43831,"ELEMENT_SET_NO":999,"REV_AT_EPOCH":40053,"BSTAR":0.00030305233,"MEAN_MOTION_DOT":7.96e-5,"MEAN_MOTION_DDOT":0},{"OBJECT_NAME":"STARLINK-32100","OBJECT_ID":"2024-086E","EPOCH":"2026-03-09T00:04:30.461376","MEAN_MOTION":15.27577555,"ECCENTRICITY":9.624e-5,"INCLINATION":43.0022,"RA_OF_ASC_NODE":45.6665,"ARG_OF_PERICENTER":250.5118,"MEAN_ANOMALY":109.563,"EPHEMERIS_TYPE":0,"CLASSIFICATION_TYPE":"U","NORAD_CAT_ID":59686,"ELEMENT_SET_NO":999,"REV_AT_EPOCH":10421,"BSTAR":6.373714e-6,"MEAN_MOTION_DOT":-8.7e-7,"MEAN_MOTION_DDOT":0}]
